{"_default": { "308": {"norad_id": "53109", "name": "AVUM R/B", "tle1": "1 53109U 22080E   26202.26867320 -.00000003  00000-0  00000-0 0  9990", "tle2": "2 53109  70.1384 286.3946 0009377 282.6707  77.2904  6.42583331 94253", "object_type": "ROCKET_BODY", "criticality_score": 3.0, "last_updated": "2026-07-21T16:42:32.471020+00:00", "maneuver_count": 0, "owner": "IT"}, "309": {"norad_id": "53111", "name": "CELESTA", "tle1": "1 53111U 22080G   23145.85382453 -.00000003  00000-0  00000+0 0  9999", "tle2": "2 53111  70.6593 327.3289 0101863  79.9078 281.3061  6.46589524 20200", "object_type": "PAYLOAD", "criticality_score": 7.0, "last_updated": "2026-07-21T16:42:32.471020+00:00", "maneuver_count": 0, "owner": "FR"}, "310": {"norad_id": "53106", "name": "MT-CUBE-2", "tle1": "1 53106U 22080B   25119.54530882 -.00000003  00000-0  00000+0 0  9993", "tle2": "2 53106  70.1441  82.5809 0008360  32.9040 327.2139  6.42557753 65597", "object_type": "PAYLOAD", "criticality_score": 7.0, "last_updated": "2026-07-21T16:42:32.471020+00:00", "maneuver_count": 0, "owner": "FR"}, "311": {"norad_id": "53108", "name": "TRISAT-R", "tle1": "1 53108U 22080D   25164.43750000  .00000000  00000-0  00000-0 0    09", "tle2": "2 53108  70.1723  68.0769 0013203  29.9127  11.4181  6.42152585    08", "object_type": "PAYLOAD", "criticality_score": 7.0, "last_updated": "2026-07-21T16:42:32.471020+00:00", "maneuver_count": 0, "owner": "SVN"}, "312": {"norad_id": "99380", "name": "ALPHA", "tle1": "1 53110U 22080F   22249.50115603 -.00000003  00000-0  00000+0 0  9995", "tle2": "2 53110  70.1887  58.2730 0239395 148.5037 284.5041  6.42698116  3412", "object_type": "PAYLOAD", "criticality_score": 7.0, "last_updated": "2026-07-21T16:42:32.471020+00:00", "maneuver_count": 0, "owner": "N/A"}, "313": {"norad_id": "53105", "name": "LARES-2", "tle1": "1 53105U 22080A   26199.78568346 -.00000020  00000-0  00000-0 0  9993", "tle2": "2 53105  70.1539 294.4914 0005479 328.1411  31.8962  6.38965084 93683", "object_type": "PAYLOAD", "criticality_score": 7.0, "last_updated": "2026-07-21T16:42:32.471020+00:00", "maneuver_count": 0, "owner": "IT"}, "314": {"norad_id": "52760", "name": "VIGORIDE 3", "tle1": "1 52760U 22057AE  26202.21665417  .00003848  00000-0  14547-3 0  9997", "tle2": "2 52760  97.6647 343.1089 0008366  14.9992 345.1493 15.27587149230357", "object_type": "PAYLOAD", "criticality_score": 7.0, "last_updated": "2026-07-21T16:42:32.471020+00:00", "maneuver_count": 0, "owner": "US"}, "315": {"norad_id": "39765", "name": "COSMOS 2499", "tle1": "1 39765U 14028E   26202.28100405  .00000010  00000-0  34075-5 0  9992", "tle2": "2 39765  82.4466 229.4218 0230292 281.6577  75.8765 12.82903336569391", "object_type": "PAYLOAD", "criticality_score": 9.0, "last_updated": "2026-07-21T16:42:32.471020+00:00", "maneuver_count": 0, "owner": "CIS"}, "316": {"norad_id": "40016", "name": "SAUDISAT 4", "tle1": "1 40016U 14033G   26202.20361397  .00000347  00000-0  52579-4 0  9991", "tle2": "2 40016  97.7626 347.1706 0043806 324.1946  35.6331 14.79579551651105", "object_type": "PAYLOAD", "criticality_score": 9.0, "last_updated": "2026-07-21T16:42:32.471020+00:00", "maneuver_count": 0, "owner": "SAUD"}, "317": {"norad_id": "28371", "name": "SAUDISAT 2", "tle1": "1 28371U 04025F   26202.23605693  .00000158  00000-0  46405-4 0  9995", "tle2": "2 28371  98.5524 203.1005 0024449 189.3225 170.7521 14.56700415170701", "object_type": "PAYLOAD", "criticality_score": 9.0, "last_updated": "2026-07-21T16:42:32.471020+00:00", "maneuver_count": 0, "owner": "SAUD"}, "318": {"norad_id": "43774", "name": "HIBER-2", "tle1": "1 43774U 18099S   26028.96940761  .08639631  25068-5  13938-2 0  9990", "tle2": "2 43774  97.4270 113.4809 0009314 286.8843  73.1432 16.33569322393452", "object_type": "PAYLOAD", "criticality_score": 9.0, "last_updated": "2026-07-21T16:42:32.471020+00:00", "maneuver_count": 0, "owner": "NETH"}, "319": {"norad_id": "48915", "name": "YAM-3", "tle1": "1 48915U 21059AN  26202.24231973  .00008848  00000-0  16402-3 0  9991", "tle2": "2 48915  97.7002  31.4428 0004326 213.1560 146.9420 15.49234723282265", "object_type": "PAYLOAD", "criticality_score": 7.0, "last_updated": "2026-07-21T16:42:32.471020+00:00", "maneuver_count": 0, "owner": "US"}, "320": {"norad_id": "11060", "name": "TIROS N", "tle1": "1 11060U 78096A   26202.04543369  .00000050  00000-0  43185-4 0  9994", "tle2": "2 11060  98.4529 221.5641 0011245 139.3612 220.8407 14.19383612683554", "object_type": "PAYLOAD", "criticality_score": 7.0, "last_updated": "2026-07-21T16:42:32.471020+00:00", "maneuver_count": 0, "owner": "US"}, "321": {"norad_id": "1430", "name": "TIROS 10", "tle1": "1 01430U 65051A   26202.26003602  .00000078  00000-0  37191-4 0  9996", "tle2": "2 01430  98.5071 321.4471 0054732 337.9314  21.9519 14.41640868200824", "object_type": "PAYLOAD", "criticality_score": 7.0, "last_updated": "2026-07-21T16:42:32.471020+00:00", "maneuver_count": 0, "owner": "US"}, "322": {"norad_id": "44316", "name": "OBJECT G", "tle1": "1 44316U 19032G   26202.27133325  .00005100  00000-0  19496-3 0  9999", "tle2": "2 44316  44.9721 234.8014 0008119  74.1318 286.0459 15.27788523392299", "object_type": "PAYLOAD", "criticality_score": 9.0, "last_updated": "2026-07-21T16:42:32.471020+00:00", "maneuver_count": 0, "owner": "PRC"}, "323": {"norad_id": "2411", "name": "SECOR 7 (EGRS 7)", "tle1": "1 02411U 66077B   26202.19605198 -.00000012  00000-0 -66394-2 0  9990", "tle2": "2 02411  90.3346 277.8424 0010879  22.3907 337.7418  8.59615348880308", "object_type": "PAYLOAD", "criticality_score": 7.0, "last_updated": "2026-07-21T16:42:32.471020+00:00", "maneuver_count": 0, "owner": "US"}, "324": {"norad_id": "3891", "name": "SECOR 13 (EGRS 13)", "tle1": "1 03891U 69037B   26202.15180690 -.00000044  00000-0 -41356-5 0  9992", "tle2": "2 03891  99.6439  72.1571 0039608 166.8091 308.3842 13.42978080806311", "object_type": "PAYLOAD", "criticality_score": 7.0, "last_updated": "2026-07-21T16:42:32.471020+00:00", "maneuver_count": 0, "owner": "US"}, "325": {"norad_id": "52157", "name": "OMNI-L1", "tle1": "1 52157U 22033A   26202.18922675  .00001219  00000-0  15697-3 0  9996", "tle2": "2 52157  97.8386 280.7066 0005812 159.6097 200.5350 14.82857831232497", "object_type": "PAYLOAD", "criticality_score": 7.0, "last_updated": "2026-07-21T16:42:32.471020+00:00", "maneuver_count": 0, "owner": "US"}, "326": {"norad_id": "99366", "name": "KHAYYAM", "tle1": "1 53370U 22096A   26202.26135118  .00003470  00000-0  13742-3 0  9990", "tle2": "2 53370  97.3403 105.8789 0001280  86.5491 273.5894 15.26082358219783", "object_type": "PAYLOAD", "criticality_score": 7.0, "last_updated": "2026-07-21T16:42:32.471020+00:00", "maneuver_count": 0, "owner": "N/A"}, "327": {"norad_id": "27431", "name": "FENGYUN 1D", "tle1": "1 27431U 02024B   26202.13328910  .00000052  00000-0  54450-4 0  9993", "tle2": "2 27431  98.9500 252.3055 0016049 144.4394 215.7849 14.10228420244269", "object_type": "PAYLOAD", "criticality_score": 9.0, "last_updated": "2026-07-21T16:42:32.471020+00:00", "maneuver_count": 0, "owner": "PRC"}, "328": {"norad_id": "49144", "name": "STARLINK-3100", "tle1": "1 49144U 21082Q   26202.02109954 -.00000192  00000-0 -83142-5 0  9994", "tle2": "2 49144  70.0006 318.2702 0003231 271.3698  88.7091 14.98332721265955", "object_type": "PAYLOAD", "criticality_score": 8.0, "last_updated": "2026-07-21T16:42:32.471020+00:00", "maneuver_count": 0, "owner": "US"}, "329": {"norad_id": "53204", "name": "STARLINK-4410", "tle1": "1 53204U 22084R   26202.25003472 -.00028308  00000-0 -78414-3 0  9995", "tle2": "2 53204  97.5995 264.5681 0001320  88.6684  25.2300 15.36979879  5863", "object_type": "PAYLOAD", "criticality_score": 8.0, "last_updated": "2026-07-21T16:42:32.471020+00:00", "maneuver_count": 0, "owner": "US"}, "330": {"norad_id": "53468", "name": "STARLINK-4400", "tle1": "1 53468U 22099D   26202.07218073  .00001780  00000-0  12723-3 0  9992", "tle2": "2 53468  97.2847 319.2763 0001886 128.2065 231.9333 15.05646149216041", "object_type": "PAYLOAD", "criticality_score": 8.0, "last_updated": "2026-07-21T16:42:32.471020+00:00", "maneuver_count": 0, "owner": "US"}, "331": {"norad_id": "53676", "name": "STARLINK-4621", "tle1": "1 53676U 22105AE  26202.14138934  .00000767  00000-0  57074-4 0  9999", "tle2": "2 53676  97.2852  79.3587 0001743  96.7220 263.4206 15.05656339213318", "object_type": "PAYLOAD", "criticality_score": 8.0, "last_updated": "2026-07-21T16:42:32.471020+00:00", "maneuver_count": 0, "owner": "US"}, "332": {"norad_id": "53043", "name": "STARLINK-4362", "tle1": "1 53043U 22077A   26202.22584153  .00000485  00000-0  37488-4 0  9996", "tle2": "2 53043  97.2866  19.3415 0001540 101.5196 258.6205 15.05653438221004", "object_type": "PAYLOAD", "criticality_score": 8.0, "last_updated": "2026-07-21T16:42:32.471020+00:00", "maneuver_count": 0, "owner": "US"}, "333": {"norad_id": "53807", "name": "BLUEWALKER 3", "tle1": "1 53807U 22111AL  26201.44082023  .00003279  00000-0  94838-4 0  9991", "tle2": "2 53807  53.2275 237.8077 0004677 289.4443  70.6056 15.38642700215324", "object_type": "PAYLOAD", "criticality_score": 7.0, "last_updated": "2026-07-21T16:42:32.471020+00:00", "maneuver_count": 0, "owner": "US"}, "334": {"norad_id": "54023", "name": "OTB-3-GAZELLE", "tle1": "1 54023U 22127A   26202.25218336  .00000106  00000-0  44708-4 0  9994", "tle2": "2 54023  98.3966 193.4412 0014472  86.2282 274.0562 14.42685490199274", "object_type": "PAYLOAD", "criticality_score": 7.0, "last_updated": "2026-07-21T16:42:32.471020+00:00", "maneuver_count": 0, "owner": "US"}, "335": {"norad_id": "46912", "name": "KSM1-A", "tle1": "1 46912U 20081H   26202.24716971  .00003852  00000-0  14816-3 0  9993", "tle2": "2 46912  36.8943 211.2401 0004118 244.0978 115.9347 15.26418674314389", "object_type": "PAYLOAD", "criticality_score": 9.0, "last_updated": "2026-07-21T16:42:32.471020+00:00", "maneuver_count": 0, "owner": "LUXE"}}}